IRIDIUM 144             
1 43249U 18030A   23234.86587098  .00000373  00000+0  12627-3 0  9992
2 43249  86.4017   0.5960 0002339  88.2086 271.9378 14.34220330282628
IRIDIUM 149             
1 43250U 18030B   23235.29082218  .00000354  00000+0  11923-3 0  9993
2 43250  86.4015   0.3967 0002335  88.6228 271.5235 14.34221927282688
IRIDIUM 157             
1 43251U 18030C   23234.96101008  .00000369  00000+0  12467-3 0  9996
2 43251  86.4017   0.5649 0002086  98.1036 262.0397 14.34218771282616
IRIDIUM 140             
1 43252U 18030D   23234.42191301  .00000029  00000+0  31777-5 0  9993
2 43252  86.4029   0.8061 0003116 101.1230 259.0316 14.34215097282599
IRIDIUM 145             
1 43253U 18030E   23235.45573261  .00000365  00000+0  12320-3 0  9991
2 43253  86.4018   0.3478 0002316  81.4912 278.6546 14.34219765282670
IRIDIUM 146             
1 43254U 18030F   23235.36693724  .00000187  00000+0  59596-4 0  9998
2 43254  86.4009   0.3993 0002151  90.0434 270.1008 14.34215050282678
IRIDIUM 148             
1 43255U 18030G   23234.91661422  .00000504  00000+0  17305-3 0  9993
2 43255  86.4017   0.6158 0001938  89.1704 270.9713 14.34216531282659
IRIDIUM 142             
1 43256U 18030H   23234.88490448  .00000439  00000+0  14968-3 0  9997
2 43256  86.4013   0.5559 0002092  90.5834 269.5602 14.34216243282608
